[{"OBJECT_NAME":"WILDTRACKCUBE-SIMBA","OBJECT_ID":"2021-022K","EPOCH":"2026-03-02T18:40:46.096320","MEAN_MOTION":16.13912444,"ECCENTRICITY":0.0007101,"INCLINATION":97.3814,"RA_OF_ASC_NODE":343.475,"ARG_OF_PERICENTER":121.4058,"MEAN_ANOMALY":238.7923,"EPHEMERIS_TYPE":0,"CLASSIFICATION_TYPE":"U","NORAD_CAT_ID":47941,"ELEMENT_SET_NO":999,"REV_AT_EPOCH":27473,"BSTAR":0.0013686,"MEAN_MOTION_DOT":0.01594751,"MEAN_MOTION_DDOT":0.0020789},{"OBJECT_NAME":"GREENCUBE (IO-117)","OBJECT_ID":"2022-080E","EPOCH":"2026-03-02T17:29:44.105280","MEAN_MOTION":6.42583122,"ECCENTRICITY":0.0009044,"INCLINATION":70.1617,"RA_OF_ASC_NODE":335.2737,"ARG_OF_PERICENTER":313.3588,"MEAN_ANOMALY":46.6318,"EPHEMERIS_TYPE":0,"CLASSIFICATION_TYPE":"U","NORAD_CAT_ID":53109,"ELEMENT_SET_NO":999,"REV_AT_EPOCH":8522,"BSTAR":0,"MEAN_MOTION_DOT":-3.0e-8,"MEAN_MOTION_DDOT":0},{"OBJECT_NAME":"SITRO-AIS 5 (KATYS)","OBJECT_ID":"2023-091L","EPOCH":"2026-03-02T20:45:15.341760","MEAN_MOTION":15.26836785,"ECCENTRICITY":0.0013376,"INCLINATION":97.5198,"RA_OF_ASC_NODE":124.8885,"ARG_OF_PERICENTER":116.6599,"MEAN_ANOMALY":243.6011,"EPHEMERIS_TYPE":0,"CLASSIFICATION_TYPE":"U","NORAD_CAT_ID":57176,"ELEMENT_SET_NO":999,"REV_AT_EPOCH":14810,"BSTAR":0.00060813,"MEAN_MOTION_DOT":0.0001602,"MEAN_MOTION_DDOT":0},{"OBJECT_NAME":"SITRO-AIS 6 (CHIRKIN)","OBJECT_ID":"2023-091AC","EPOCH":"2026-03-02T21:17:13.783776","MEAN_MOTION":15.24279226,"ECCENTRICITY":0.0014164,"INCLINATION":97.5202,"RA_OF_ASC_NODE":124.5332,"ARG_OF_PERICENTER":116.6097,"MEAN_ANOMALY":243.6593,"EPHEMERIS_TYPE":0,"CLASSIFICATION_TYPE":"U","NORAD_CAT_ID":57192,"ELEMENT_SET_NO":999,"REV_AT_EPOCH":14808,"BSTAR":0.00036987,"MEAN_MOTION_DOT":8.988e-5,"MEAN_MOTION_DDOT":0},{"OBJECT_NAME":"SITRO-AIS 8 (ANOKHIN)","OBJECT_ID":"2023-091AD","EPOCH":"2026-03-02T20:34:00.488640","MEAN_MOTION":15.29079538,"ECCENTRICITY":0.0012573,"INCLINATION":97.5191,"RA_OF_ASC_NODE":126.074,"ARG_OF_PERICENTER":114.2853,"MEAN_ANOMALY":245.9701,"EPHEMERIS_TYPE":0,"CLASSIFICATION_TYPE":"U","NORAD_CAT_ID":57193,"ELEMENT_SET_NO":999,"REV_AT_EPOCH":14818,"BSTAR":0.00061916,"MEAN_MOTION_DOT":0.00017465,"MEAN_MOTION_DDOT":0},{"OBJECT_NAME":"SITRO-AIS 7 (FARTUSHNIY)","OBJECT_ID":"2023-091AE","EPOCH":"2026-03-02T20:53:23.021376","MEAN_MOTION":15.24039063,"ECCENTRICITY":0.0013943,"INCLINATION":97.5201,"RA_OF_ASC_NODE":124.3904,"ARG_OF_PERICENTER":117.4255,"MEAN_ANOMALY":242.8402,"EPHEMERIS_TYPE":0,"CLASSIFICATION_TYPE":"U","NORAD_CAT_ID":57194,"ELEMENT_SET_NO":999,"REV_AT_EPOCH":14807,"BSTAR":0.00031574,"MEAN_MOTION_DOT":7.605e-5,"MEAN_MOTION_DDOT":0},{"OBJECT_NAME":"SITRO-AIS 10 (BURDAEV)","OBJECT_ID":"2023-091AK","EPOCH":"2026-03-02T20:10:40.979712","MEAN_MOTION":15.34390345,"ECCENTRICITY":0.0008536,"INCLINATION":97.5204,"RA_OF_ASC_NODE":130.117,"ARG_OF_PERICENTER":96.2091,"MEAN_ANOMALY":264.0124,"EPHEMERIS_TYPE":0,"CLASSIFICATION_TYPE":"U","NORAD_CAT_ID":57199,"ELEMENT_SET_NO":999,"REV_AT_EPOCH":14843,"BSTAR":0.00070685,"MEAN_MOTION_DOT":0.0002353,"MEAN_MOTION_DDOT":0},{"OBJECT_NAME":"SITRO-AIS 9 (SHCHUKIN)","OBJECT_ID":"2023-091AM","EPOCH":"2026-03-02T20:05:44.879136","MEAN_MOTION":15.34026071,"ECCENTRICITY":0.0008701,"INCLINATION":97.5204,"RA_OF_ASC_NODE":129.917,"ARG_OF_PERICENTER":96.0016,"MEAN_ANOMALY":264.2218,"EPHEMERIS_TYPE":0,"CLASSIFICATION_TYPE":"U","NORAD_CAT_ID":57201,"ELEMENT_SET_NO":999,"REV_AT_EPOCH":14842,"BSTAR":0.0007142,"MEAN_MOTION_DOT":0.00023504,"MEAN_MOTION_DDOT":0},{"OBJECT_NAME":"SITRO-AIS 12 (SMIRENNIY)","OBJECT_ID":"2023-091AQ","EPOCH":"2026-03-02T20:19:16.989024","MEAN_MOTION":15.34273957,"ECCENTRICITY":0.000841,"INCLINATION":97.5214,"RA_OF_ASC_NODE":130.3318,"ARG_OF_PERICENTER":91.59,"MEAN_ANOMALY":268.6306,"EPHEMERIS_TYPE":0,"CLASSIFICATION_TYPE":"U","NORAD_CAT_ID":57204,"ELEMENT_SET_NO":999,"REV_AT_EPOCH":14844,"BSTAR":0.00072544,"MEAN_MOTION_DOT":0.00024063,"MEAN_MOTION_DDOT":0},{"OBJECT_NAME":"SITRO-AIS 11 (SHEFFER)","OBJECT_ID":"2023-091AU","EPOCH":"2026-03-02T21:16:44.256576","MEAN_MOTION":15.3460695,"ECCENTRICITY":0.0008241,"INCLINATION":97.5212,"RA_OF_ASC_NODE":130.5594,"ARG_OF_PERICENTER":90.9558,"MEAN_ANOMALY":269.2629,"EPHEMERIS_TYPE":0,"CLASSIFICATION_TYPE":"U","NORAD_CAT_ID":57208,"ELEMENT_SET_NO":999,"REV_AT_EPOCH":14846,"BSTAR":0.00073491,"MEAN_MOTION_DOT":0.00024638,"MEAN_MOTION_DDOT":0},{"OBJECT_NAME":"SITRO-AIS 25","OBJECT_ID":"2024-039R","EPOCH":"2026-03-02T21:09:56.637792","MEAN_MOTION":14.92560101,"ECCENTRICITY":0.0146184,"INCLINATION":95.3946,"RA_OF_ASC_NODE":162.0749,"ARG_OF_PERICENTER":340.3055,"MEAN_ANOMALY":19.2558,"EPHEMERIS_TYPE":0,"CLASSIFICATION_TYPE":"U","NORAD_CAT_ID":59066,"ELEMENT_SET_NO":999,"REV_AT_EPOCH":10886,"BSTAR":0.00040681,"MEAN_MOTION_DOT":5.116e-5,"MEAN_MOTION_DDOT":0},{"OBJECT_NAME":"SITRO-AIS 26","OBJECT_ID":"2024-039S","EPOCH":"2026-03-02T20:52:00.468768","MEAN_MOTION":14.92372489,"ECCENTRICITY":0.014652,"INCLINATION":95.3944,"RA_OF_ASC_NODE":161.9847,"ARG_OF_PERICENTER":340.7915,"MEAN_ANOMALY":18.7819,"EPHEMERIS_TYPE":0,"CLASSIFICATION_TYPE":"U","NORAD_CAT_ID":59067,"ELEMENT_SET_NO":999,"REV_AT_EPOCH":10885,"BSTAR":0.00037675,"MEAN_MOTION_DOT":4.715e-5,"MEAN_MOTION_DDOT":0},{"OBJECT_NAME":"SITRO-AIS 27","OBJECT_ID":"2024-039T","EPOCH":"2026-03-02T20:50:46.934592","MEAN_MOTION":14.92766843,"ECCENTRICITY":0.0145608,"INCLINATION":95.3945,"RA_OF_ASC_NODE":162.2083,"ARG_OF_PERICENTER":339.6263,"MEAN_ANOMALY":19.9188,"EPHEMERIS_TYPE":0,"CLASSIFICATION_TYPE":"U","NORAD_CAT_ID":59068,"ELEMENT_SET_NO":999,"REV_AT_EPOCH":10887,"BSTAR":0.00037318,"MEAN_MOTION_DOT":4.708e-5,"MEAN_MOTION_DDOT":0},{"OBJECT_NAME":"SITRO-AIS 28","OBJECT_ID":"2024-039U","EPOCH":"2026-03-02T20:21:49.807296","MEAN_MOTION":14.92801726,"ECCENTRICITY":0.0145526,"INCLINATION":95.3948,"RA_OF_ASC_NODE":162.2362,"ARG_OF_PERICENTER":339.5877,"MEAN_ANOMALY":19.9567,"EPHEMERIS_TYPE":0,"CLASSIFICATION_TYPE":"U","NORAD_CAT_ID":59071,"ELEMENT_SET_NO":999,"REV_AT_EPOCH":10887,"BSTAR":0.0003378,"MEAN_MOTION_DOT":4.261e-5,"MEAN_MOTION_DDOT":0},{"OBJECT_NAME":"GRBBETA","OBJECT_ID":"2024-128C","EPOCH":"2026-03-02T19:13:05.256192","MEAN_MOTION":15.05685105,"ECCENTRICITY":0.0052097,"INCLINATION":61.9887,"RA_OF_ASC_NODE":229.2747,"ARG_OF_PERICENTER":112.8696,"MEAN_ANOMALY":247.7909,"EPHEMERIS_TYPE":0,"CLASSIFICATION_TYPE":"U","NORAD_CAT_ID":60237,"ELEMENT_SET_NO":999,"REV_AT_EPOCH":9024,"BSTAR":0.00050539,"MEAN_MOTION_DOT":7.355e-5,"MEAN_MOTION_DDOT":0},{"OBJECT_NAME":"OOV-CUBE (TUBSAT-30)","OBJECT_ID":"2024-128F","EPOCH":"2026-03-02T18:33:50.125248","MEAN_MOTION":15.02184323,"ECCENTRICITY":0.0055105,"INCLINATION":61.9933,"RA_OF_ASC_NODE":236.4815,"ARG_OF_PERICENTER":111.0594,"MEAN_ANOMALY":249.6402,"EPHEMERIS_TYPE":0,"CLASSIFICATION_TYPE":"U","NORAD_CAT_ID":60240,"ELEMENT_SET_NO":999,"REV_AT_EPOCH":9012,"BSTAR":0.00032804,"MEAN_MOTION_DOT":4.271e-5,"MEAN_MOTION_DDOT":0}]
