WILDTRACKCUBE-SIMBA     
1 47941U 21022K   26061.77831130  .01594751  20789-2  13686-2 0  9993
2 47941  97.3814 343.4750 0007101 121.4058 238.7923 16.13912444274737
GREENCUBE (IO-117)      
1 53109U 22080E   26061.72898270 -.00000003  00000+0  00000+0 0  9990
2 53109  70.1617 335.2737 0009044 313.3588  46.6318  6.42583122 85228
SITRO-AIS 5 (KATYS)     
1 57176U 23091L   26061.86476090  .00016020  00000+0  60813-3 0  9995
2 57176  97.5198 124.8885 0013376 116.6599 243.6011 15.26836785148102
SITRO-AIS 6 (CHIRKIN)   
1 57192U 23091AC  26061.88696509  .00008988  00000+0  36987-3 0  9993
2 57192  97.5202 124.5332 0014164 116.6097 243.6593 15.24279226148080
SITRO-AIS 8 (ANOKHIN)   
1 57193U 23091AD  26061.85695010  .00017465  00000+0  61916-3 0  9997
2 57193  97.5191 126.0740 0012573 114.2853 245.9701 15.29079538148180
SITRO-AIS 7 (FARTUSHNIY)
1 57194U 23091AE  26061.87040534  .00007605  00000+0  31574-3 0  9997
2 57194  97.5201 124.3904 0013943 117.4255 242.8402 15.24039063148075
SITRO-AIS 10 (BURDAEV)  
1 57199U 23091AK  26061.84075208  .00023530  00000+0  70685-3 0  9996
2 57199  97.5204 130.1170 0008536  96.2091 264.0124 15.34390345148438
SITRO-AIS 9 (SHCHUKIN)  
1 57201U 23091AM  26061.83732499  .00023504  00000+0  71420-3 0  9990
2 57201  97.5204 129.9170 0008701  96.0016 264.2218 15.34026071148424
SITRO-AIS 12 (SMIRENNIY)
1 57204U 23091AQ  26061.84672441  .00024063  00000+0  72544-3 0  9993
2 57204  97.5214 130.3318 0008410  91.5900 268.6306 15.34273957148442
SITRO-AIS 11 (SHEFFER)  
1 57208U 23091AU  26061.88662334  .00024638  00000+0  73491-3 0  9991
2 57208  97.5212 130.5594 0008241  90.9558 269.2629 15.34606950148466
SITRO-AIS 25            
1 59066U 24039R   26061.88190553  .00005116  00000+0  40681-3 0  9992
2 59066  95.3946 162.0749 0146184 340.3055  19.2558 14.92560101108869
SITRO-AIS 26            
1 59067U 24039S   26061.86944987  .00004715  00000+0  37675-3 0  9992
2 59067  95.3944 161.9847 0146520 340.7915  18.7819 14.92372489108851
SITRO-AIS 27            
1 59068U 24039T   26061.86859878  .00004708  00000+0  37318-3 0  9993
2 59068  95.3945 162.2083 0145608 339.6263  19.9188 14.92766843108873
SITRO-AIS 28            
1 59071U 24039U   26061.84849314  .00004261  00000+0  33780-3 0  9992
2 59071  95.3948 162.2362 0145526 339.5877  19.9567 14.92801726108870
GRBBETA                 
1 60237U 24128C   26061.80075528  .00007355  00000+0  50539-3 0  9999
2 60237  61.9887 229.2747 0052097 112.8696 247.7909 15.05685105 90247
OOV-CUBE (TUBSAT-30)    
1 60240U 24128F   26061.77349682  .00004271  00000+0  32804-3 0  9993
2 60240  61.9933 236.4815 0055105 111.0594 249.6402 15.02184323 90129
